ATLAS CENTAUR R/B       
1 06155U 72065B   25315.03145860  .00002094  00000+0  29101-3 0  9990
2 06155  35.0019 280.9231 0033028  92.2752 268.1730 14.77282038823704
SL-8 R/B                
1 08459U 75112B   25315.24909340  .00000567  00000+0  19524-3 0  9990
2 08459  74.0609 236.7765 0015693 352.7422   7.3503 14.38114347614846
SL-3 R/B                
1 10114U 77057B   25315.22683190  .00015477  00000+0  36563-3 0  9999
2 10114  97.5687 117.3550 0007709   0.2044 359.9204 15.41912379650056
SEASAT 1                
1 10967U 78064A   25315.27538664  .00000858  00000+0  27873-3 0  9995
2 10967 108.0063 237.0337 0002405 256.3992 103.6885 14.46006794489390
SL-14 R/B               
1 11267U 79011B   25315.19461431  .00001156  00000+0  11203-3 0  9992
2 11267  82.5263 208.9560 0017700  92.7747 267.5499 14.91711740511112
SL-8 R/B                
1 11574U 79089B   25315.27593136  .00000525  00000+0  16687-3 0  9995
2 11574  74.0679 310.2141 0015086 157.1400 203.0431 14.42250133419038
SL-14 R/B               
1 11672U 80005B   25315.26404621  .00001370  00000+0  13682-3 0  9994
2 11672  82.5157  59.5438 0015420 193.2943 166.7873 14.90728216458841
SL-8 R/B                
1 12139U 81003B   25315.31470578  .00034488  00000+0  95392-3 0  9996
2 12139  82.9334  39.0892 0282877 228.9991 128.6467 15.05352270296834
SL-3 R/B                
1 12465U 81046B   25315.29369877  .00017421  00000+0  45200-3 0  9992
2 12465  81.2329  71.5233 0020711  72.1432 288.2065 15.38641453420205
METEOR PRIRODA          
1 12585U 81065A   25315.52501859  .00736441  29943-3  78337-3 0  9998
2 12585  97.4666  20.0342 0004239 266.7789  93.3009 16.10258184425792
SL-3 R/B                
1 12904U 81103B   25315.25819895  .00011081  00000+0  51728-3 0  9998
2 12904  81.1603 352.2104 0012924 336.6371  23.4271 15.19652214955230
SL-3 R/B                
1 13068U 82013B   25315.26058094  .00006841  00000+0  30843-3 0  9991
2 13068  81.1731 299.4490 0021901 215.5185 144.4589 15.20666497386343
