CCSDS_OMM_VERS = 2.0
CREATION_DATE  = 
ORIGINATOR     = 

OBJECT_NAME    = ATLAS CENTAUR R/B
OBJECT_ID      = 1972-065B
CENTER_NAME    = EARTH
REF_FRAME      = TEME
TIME_SYSTEM    = UTC
MEAN_ELEMENT_THEORY = SGP/SGP4

EPOCH          = 2025-11-11T00:45:18.023040
MEAN_MOTION    = 14.77282038
ECCENTRICITY   = .00330288
INCLINATION    = 35.0019
RA_OF_ASC_NODE = 280.9231
ARG_OF_PERICENTER = 92.2752
MEAN_ANOMALY   = 268.1730

EPHEMERIS_TYPE = 0
CLASSIFICATION_TYPE = U
NORAD_CAT_ID   = 6155
ELEMENT_SET_NO = 999
REV_AT_EPOCH   = 82370
BSTAR          = .29101042E-3
MEAN_MOTION_DOT = .2094E-4
MEAN_MOTION_DDOT = 0

CCSDS_OMM_VERS = 2.0
CREATION_DATE  = 
ORIGINATOR     = 

OBJECT_NAME    = SL-8 R/B
OBJECT_ID      = 1975-112B
CENTER_NAME    = EARTH
REF_FRAME      = TEME
TIME_SYSTEM    = UTC
MEAN_ELEMENT_THEORY = SGP/SGP4

EPOCH          = 2025-11-11T05:58:41.669760
MEAN_MOTION    = 14.38114347
ECCENTRICITY   = .00156934
INCLINATION    = 74.0609
RA_OF_ASC_NODE = 236.7765
ARG_OF_PERICENTER = 352.7422
MEAN_ANOMALY   = 7.3503

EPHEMERIS_TYPE = 0
CLASSIFICATION_TYPE = U
NORAD_CAT_ID   = 8459
ELEMENT_SET_NO = 999
REV_AT_EPOCH   = 61484
BSTAR          = .19524474E-3
MEAN_MOTION_DOT = .567E-5
MEAN_MOTION_DDOT = 0

CCSDS_OMM_VERS = 2.0
CREATION_DATE  = 
ORIGINATOR     = 

OBJECT_NAME    = SL-3 R/B
OBJECT_ID      = 1977-057B
CENTER_NAME    = EARTH
REF_FRAME      = TEME
TIME_SYSTEM    = UTC
MEAN_ELEMENT_THEORY = SGP/SGP4

EPOCH          = 2025-11-11T05:26:38.276160
MEAN_MOTION    = 15.41912379
ECCENTRICITY   = .00077093
INCLINATION    = 97.5687
RA_OF_ASC_NODE = 117.3550
ARG_OF_PERICENTER = 0.2044
MEAN_ANOMALY   = 359.9204

EPHEMERIS_TYPE = 0
CLASSIFICATION_TYPE = U
NORAD_CAT_ID   = 10114
ELEMENT_SET_NO = 999
REV_AT_EPOCH   = 65005
BSTAR          = .36563388E-3
MEAN_MOTION_DOT = .15477E-3
MEAN_MOTION_DDOT = 0

CCSDS_OMM_VERS = 2.0
CREATION_DATE  = 
ORIGINATOR     = 

OBJECT_NAME    = SEASAT 1
OBJECT_ID      = 1978-064A
CENTER_NAME    = EARTH
REF_FRAME      = TEME
TIME_SYSTEM    = UTC
MEAN_ELEMENT_THEORY = SGP/SGP4

EPOCH          = 2025-11-11T06:36:33.405696
MEAN_MOTION    = 14.46006794
ECCENTRICITY   = .00024054
INCLINATION    = 108.0063
RA_OF_ASC_NODE = 237.0337
ARG_OF_PERICENTER = 256.3992
MEAN_ANOMALY   = 103.6885

EPHEMERIS_TYPE = 0
CLASSIFICATION_TYPE = U
NORAD_CAT_ID   = 10967
ELEMENT_SET_NO = 999
REV_AT_EPOCH   = 48939
BSTAR          = .27872682E-3
MEAN_MOTION_DOT = .858E-5
MEAN_MOTION_DDOT = 0

CCSDS_OMM_VERS = 2.0
CREATION_DATE  = 
ORIGINATOR     = 

OBJECT_NAME    = SL-14 R/B
OBJECT_ID      = 1979-011B
CENTER_NAME    = EARTH
REF_FRAME      = TEME
TIME_SYSTEM    = UTC
MEAN_ELEMENT_THEORY = SGP/SGP4

EPOCH          = 2025-11-11T04:40:14.676384
MEAN_MOTION    = 14.91711740
ECCENTRICITY   = .00177
INCLINATION    = 82.5263
RA_OF_ASC_NODE = 208.9560
ARG_OF_PERICENTER = 92.7747
MEAN_ANOMALY   = 267.5499

EPHEMERIS_TYPE = 0
CLASSIFICATION_TYPE = U
NORAD_CAT_ID   = 11267
ELEMENT_SET_NO = 999
REV_AT_EPOCH   = 51111
BSTAR          = .1120314E-3
MEAN_MOTION_DOT = .1156E-4
MEAN_MOTION_DDOT = 0

CCSDS_OMM_VERS = 2.0
CREATION_DATE  = 
ORIGINATOR     = 

OBJECT_NAME    = SL-8 R/B
OBJECT_ID      = 1979-089B
CENTER_NAME    = EARTH
REF_FRAME      = TEME
TIME_SYSTEM    = UTC
MEAN_ELEMENT_THEORY = SGP/SGP4

EPOCH          = 2025-11-11T06:37:20.469504
MEAN_MOTION    = 14.42250133
ECCENTRICITY   = .00150863
INCLINATION    = 74.0679
RA_OF_ASC_NODE = 310.2141
ARG_OF_PERICENTER = 157.1400
MEAN_ANOMALY   = 203.0431

EPHEMERIS_TYPE = 0
CLASSIFICATION_TYPE = U
NORAD_CAT_ID   = 11574
ELEMENT_SET_NO = 999
REV_AT_EPOCH   = 41903
BSTAR          = .16687217E-3
MEAN_MOTION_DOT = .525E-5
MEAN_MOTION_DDOT = 0

CCSDS_OMM_VERS = 2.0
CREATION_DATE  = 
ORIGINATOR     = 

OBJECT_NAME    = SL-14 R/B
OBJECT_ID      = 1980-005B
CENTER_NAME    = EARTH
REF_FRAME      = TEME
TIME_SYSTEM    = UTC
MEAN_ELEMENT_THEORY = SGP/SGP4

EPOCH          = 2025-11-11T06:20:13.592544
MEAN_MOTION    = 14.90728216
ECCENTRICITY   = .00154207
INCLINATION    = 82.5157
RA_OF_ASC_NODE = 59.5438
ARG_OF_PERICENTER = 193.2943
MEAN_ANOMALY   = 166.7873

EPHEMERIS_TYPE = 0
CLASSIFICATION_TYPE = U
NORAD_CAT_ID   = 11672
ELEMENT_SET_NO = 999
REV_AT_EPOCH   = 45884
BSTAR          = .13681595E-3
MEAN_MOTION_DOT = .137E-4
MEAN_MOTION_DDOT = 0

CCSDS_OMM_VERS = 2.0
CREATION_DATE  = 
ORIGINATOR     = 

OBJECT_NAME    = SL-8 R/B
OBJECT_ID      = 1981-003B
CENTER_NAME    = EARTH
REF_FRAME      = TEME
TIME_SYSTEM    = UTC
MEAN_ELEMENT_THEORY = SGP/SGP4

EPOCH          = 2025-11-11T07:33:10.579392
MEAN_MOTION    = 15.05352270
ECCENTRICITY   = .02828773
INCLINATION    = 82.9334
RA_OF_ASC_NODE = 39.0892
ARG_OF_PERICENTER = 228.9991
MEAN_ANOMALY   = 128.6467

EPHEMERIS_TYPE = 0
CLASSIFICATION_TYPE = U
NORAD_CAT_ID   = 12139
ELEMENT_SET_NO = 999
REV_AT_EPOCH   = 29683
BSTAR          = .95392162E-3
MEAN_MOTION_DOT = .34488E-3
MEAN_MOTION_DDOT = 0

CCSDS_OMM_VERS = 2.0
CREATION_DATE  = 
ORIGINATOR     = 

OBJECT_NAME    = SL-3 R/B
OBJECT_ID      = 1981-046B
CENTER_NAME    = EARTH
REF_FRAME      = TEME
TIME_SYSTEM    = UTC
MEAN_ELEMENT_THEORY = SGP/SGP4

EPOCH          = 2025-11-11T07:02:55.573728
MEAN_MOTION    = 15.38641453
ECCENTRICITY   = .00207115
INCLINATION    = 81.2329
RA_OF_ASC_NODE = 71.5233
ARG_OF_PERICENTER = 72.1432
MEAN_ANOMALY   = 288.2065

EPHEMERIS_TYPE = 0
CLASSIFICATION_TYPE = U
NORAD_CAT_ID   = 12465
ELEMENT_SET_NO = 999
REV_AT_EPOCH   = 42020
BSTAR          = .45200212E-3
MEAN_MOTION_DOT = .17421E-3
MEAN_MOTION_DDOT = 0

CCSDS_OMM_VERS = 2.0
CREATION_DATE  = 
ORIGINATOR     = 

OBJECT_NAME    = METEOR PRIRODA
OBJECT_ID      = 1981-065A
CENTER_NAME    = EARTH
REF_FRAME      = TEME
TIME_SYSTEM    = UTC
MEAN_ELEMENT_THEORY = SGP/SGP4

EPOCH          = 2025-11-11T12:36:01.606176
MEAN_MOTION    = 16.10258184
ECCENTRICITY   = .0004239
INCLINATION    = 97.4666
RA_OF_ASC_NODE = 20.0342
ARG_OF_PERICENTER = 266.7789
MEAN_ANOMALY   = 93.3009

EPHEMERIS_TYPE = 0
CLASSIFICATION_TYPE = U
NORAD_CAT_ID   = 12585
ELEMENT_SET_NO = 999
REV_AT_EPOCH   = 42579
BSTAR          = .78337E-3
MEAN_MOTION_DOT = .736441E-2
MEAN_MOTION_DDOT = .29943E-3

CCSDS_OMM_VERS = 2.0
CREATION_DATE  = 
ORIGINATOR     = 

OBJECT_NAME    = SL-3 R/B
OBJECT_ID      = 1981-103B
CENTER_NAME    = EARTH
REF_FRAME      = TEME
TIME_SYSTEM    = UTC
MEAN_ELEMENT_THEORY = SGP/SGP4

EPOCH          = 2025-11-11T06:11:48.389280
MEAN_MOTION    = 15.19652214
ECCENTRICITY   = .00129245
INCLINATION    = 81.1603
RA_OF_ASC_NODE = 352.2104
ARG_OF_PERICENTER = 336.6371
MEAN_ANOMALY   = 23.4271

EPHEMERIS_TYPE = 0
CLASSIFICATION_TYPE = U
NORAD_CAT_ID   = 12904
ELEMENT_SET_NO = 999
REV_AT_EPOCH   = 95523
BSTAR          = .51727794E-3
MEAN_MOTION_DOT = .11081E-3
MEAN_MOTION_DDOT = 0

CCSDS_OMM_VERS = 2.0
CREATION_DATE  = 
ORIGINATOR     = 

OBJECT_NAME    = SL-3 R/B
OBJECT_ID      = 1982-013B
CENTER_NAME    = EARTH
REF_FRAME      = TEME
TIME_SYSTEM    = UTC
MEAN_ELEMENT_THEORY = SGP/SGP4

EPOCH          = 2025-11-11T06:15:14.193216
MEAN_MOTION    = 15.20666497
ECCENTRICITY   = .00219017
INCLINATION    = 81.1731
RA_OF_ASC_NODE = 299.4490
ARG_OF_PERICENTER = 215.5185
MEAN_ANOMALY   = 144.4589

EPHEMERIS_TYPE = 0
CLASSIFICATION_TYPE = U
NORAD_CAT_ID   = 13068
ELEMENT_SET_NO = 999
REV_AT_EPOCH   = 38634
BSTAR          = .30842734E-3
MEAN_MOTION_DOT = .6841E-4
MEAN_MOTION_DDOT = 0

